STARLINK-5076           
1 55401U 23014L   26068.40043798 -.00000085  00000+0  70710-6 0  9996
2 55401  69.9994  65.1236 0003253 266.6274  93.4513 14.98331588172018
LEMUR-2-ARIANNA         
1 62699U 25009CU  26068.74082662  .00009084  00000+0  71790-3 0  9992
2 62699  97.6996 151.0445 0004640 147.3928 212.7583 15.00881954 62634
